[{"OBJECT_NAME":"PHISAT 2","OBJECT_ID":"2024-149C","EPOCH":"2026-03-09T18:55:12.732384","MEAN_MOTION":15.29548632,"ECCENTRICITY":0.00011753,"INCLINATION":97.3806,"RA_OF_ASC_NODE":148.6498,"ARG_OF_PERICENTER":168.623,"MEAN_ANOMALY":191.5037,"EPHEMERIS_TYPE":0,"CLASSIFICATION_TYPE":"U","NORAD_CAT_ID":60470,"ELEMENT_SET_NO":999,"REV_AT_EPOCH":8679,"BSTAR":0.00031420974,"MEAN_MOTION_DOT":8.925e-5,"MEAN_MOTION_DDOT":0},{"OBJECT_NAME":"STARLINK-32828","OBJECT_ID":"2025-034S","EPOCH":"2026-03-09T22:25:56.941248","MEAN_MOTION":15.30200145,"ECCENTRICITY":5.229e-5,"INCLINATION":53.1583,"RA_OF_ASC_NODE":269.8138,"ARG_OF_PERICENTER":95.233,"MEAN_ANOMALY":264.8731,"EPHEMERIS_TYPE":0,"CLASSIFICATION_TYPE":"U","NORAD_CAT_ID":63045,"ELEMENT_SET_NO":999,"REV_AT_EPOCH":5894,"BSTAR":0.00085028242,"MEAN_MOTION_DOT":0.00024908,"MEAN_MOTION_DDOT":0}]
